ONEWEB-0473             
1 51653U 22012AH  26204.44773946 -.00000089  00000+0 -29121-3 0  9991
2 51653  87.8810  29.0486 0001855  92.0083 268.1257 13.10371187214059
ONEWEB-0474             
1 51654U 22012AJ  26204.21018648  .00000379  00000+0  10495-2 0  9991
2 51654  87.8818  29.0836 0001680  98.1692 261.9626 13.10370349214012
ONEWEB-0475             
1 51655U 22012AK  26204.36796143  .00000049  00000+0  91949-4 0  9990
2 51655  87.9160 358.6761 0001597 118.0980 242.0313 13.17648944218452
ONEWEB-0490             
1 54113U 22138A   26204.29919264  .00000051  00000+0  94639-4 0  9996
2 54113  87.9190 297.7788 0002147 104.3413 255.7958 13.19725052181598
ONEWEB-0492             
1 54114U 22138B   26204.55191053 -.00000003  00000+0 -38979-4 0  9998
2 54114  87.9181 297.7274 0002307 101.1602 258.9790 13.19723935181634
ONEWEB-0495             
1 54115U 22138C   26204.52979631  .00000054  00000+0  10142-3 0  9997
2 54115  87.9184 297.7345 0002426 113.7842 246.3545 13.19727011181610
ONEWEB-0497             
1 54116U 22138D   26204.54243176  .00000017  00000+0  10472-4 0  9994
2 54116  87.9186 297.7261 0002091 102.4933 257.6434 13.19724211181604
ONEWEB-0499             
1 54117U 22138E   26204.52585736  .00000043  00000+0  73957-4 0  9990
2 54117  87.9186 297.7365 0002067 107.0622 253.0738 13.19724776181613
ONEWEB-0500             
1 54118U 22138F   26204.52822534  .00000082  00000+0  17290-3 0  9991
2 54118  87.9188 297.7322 0002078  97.7840 262.3528 13.19726532181621
ONEWEB-0501             
1 54119U 22138G   26204.55823852 -.00000003  00000+0 -40712-4 0  9990
2 54119  87.9192 297.7267 0002266 110.0663 250.0714 13.19726855181603
ONEWEB-0502             
1 54120U 22138H   26204.24074119  .00000020  00000+0  17576-4 0  9991
2 54120  87.9194 297.7790 0002009 107.4242 252.7110 13.19724001181583
ONEWEB-0503             
1 54121U 22138J   26204.30550407  .00000044  00000+0  77048-4 0  9994
2 54121  87.9191 297.7725 0001760 101.0568 259.0763 13.19726584181585
ONEWEB-0504             
1 54122U 22138K   26204.52031829  .00000140  00000+0  31614-3 0  9996
2 54122  87.9191 297.7340 0001996 107.3786 252.7565 13.19726990181627
ONEWEB-0505             
1 54123U 22138L   26204.28971002  .00000053  00000+0  99923-4 0  9997
2 54123  87.9188 297.7801 0002170 112.2989 247.8374 13.19723624181579
ONEWEB-0506             
1 54124U 22138M   26204.26445525  .00000035  00000+0  54653-4 0  9993
2 54124  87.9194 297.7836 0002177 108.6411 251.4958 13.19726318181562
ONEWEB-0507             
1 54125U 22138N   26204.28496678 -.00000109  00000+0 -30586-3 0  9993
2 54125  87.9183 297.7882 0002179 105.3550 254.7824 13.19726339181619
ONEWEB-0508             
1 54126U 22138P   26204.50926773  .00000091  00000+0  19564-3 0  9994
2 54126  87.9184 297.7429 0002380 107.6077 252.5316 13.19726616181622
ONEWEB-0509             
1 54127U 22138Q   26204.25654597  .00000031  00000+0  45804-4 0  9990
2 54127  87.9193 297.7865 0002101 104.4451 255.6915 13.19725069181562
ONEWEB-0510             
1 54128U 22138R   26204.19225682 -.00000915  00000+0 -22837-2 0  9995
2 54128  87.9176 267.2605 0001800  84.7883 275.3455 13.20762896184036
ONEWEB-0511             
1 54129U 22138S   26204.55665171 -.00000076  00000+0 -22094-3 0  9991
2 54129  87.9188 297.7279 0001820 106.1908 253.9425 13.19724225181638
ONEWEB-0512             
1 54130U 22138T   26204.54874810  .00000022  00000+0  23326-4 0  9993
2 54130  87.9180 297.7320 0002048 110.3240 249.8113 13.19724199181603
ONEWEB-0513             
1 54131U 22138U   26204.31204896  .00000021  00000+0  18935-4 0  9999
2 54131  87.9189 297.7189 0001944 126.2385 233.8928 13.20269906181481
ONEWEB-0514             
1 54132U 22138V   26204.48873233 -.00000006  00000+0 -47075-4 0  9997
2 54132  87.9190 297.7409 0001935  96.8106 263.3247 13.19724779181611
ONEWEB-0515             
1 54133U 22138W   26204.17878360  .00000052  00000+0  97026-4 0  9990
2 54133  87.9180 267.2596 0002590  81.8331 278.3096 13.20772853184059
ONEWEB-0516             
1 54134U 22138X   26204.53927803  .00000059  00000+0  11472-3 0  9995
2 54134  87.9181 297.7341 0002195 100.8643 259.2737 13.19724542181626
ONEWEB-0517             
1 54135U 22138Y   26204.51874000  .00000090  00000+0  19303-3 0  9990
2 54135  87.9187 297.7331 0001749 101.8950 258.2379 13.19727016181628
ONEWEB-0518             
1 54136U 22138Z   26204.31025286  .00000024  00000+0  28448-4 0  9991
2 54136  87.9183 297.7819 0002237  98.7128 261.4258 13.19724532181598
ONEWEB-0519             
1 54137U 22138AA  26204.56296750  .00000019  00000+0  15458-4 0  9996
2 54137  87.9190 297.7256 0001823 100.0431 260.0907 13.19724525181639
ONEWEB-0520             
1 54138U 22138AB  26204.52190583  .00000093  00000+0  19953-3 0  9995
2 54138  87.9191 297.7341 0002200 106.3477 253.7897 13.19725096181614
ONEWEB-0521             
1 54139U 22138AC  26204.25179378  .00000062  00000+0  12196-3 0  9993
2 54139  87.9194 297.7771 0001804  98.7297 261.4040 13.19724383181522
