OBJECT_NAME,OBJECT_ID,EPOCH,MEAN_MOTION,ECCENTRICITY,INCLINATION,RA_OF_ASC_NODE,ARG_OF_PERICENTER,MEAN_ANOMALY,EPHEMERIS_TYPE,CLASSIFICATION_TYPE,NORAD_CAT_ID,ELEMENT_SET_NO,REV_AT_EPOCH,BSTAR,MEAN_MOTION_DOT,MEAN_MOTION_DDOT
ONEWEB-0473,2022-012AH,2026-07-23T10:44:44.689344,13.10371187,.00018558,87.8810,29.0486,92.0083,268.1257,0,U,51653,999,21405,-.29121359E-3,-.89E-6,0
ONEWEB-0474,2022-012AJ,2026-07-23T05:02:40.111872,13.10370349,.00016801,87.8818,29.0836,98.1692,261.9626,0,U,51654,999,21401,.10495279E-2,.379E-5,0
ONEWEB-0475,2022-012AK,2026-07-23T08:49:51.867552,13.17648944,.0001597,87.9160,358.6761,118.0980,242.0313,0,U,51655,999,21845,.91948543E-4,.49E-6,0
ONEWEB-0490,2022-138A,2026-07-23T07:10:50.244096,13.19725052,.00021474,87.9190,297.7788,104.3413,255.7958,0,U,54113,999,18159,.94638993E-4,.51E-6,0
ONEWEB-0492,2022-138B,2026-07-23T13:14:45.069792,13.19723935,.00023076,87.9181,297.7274,101.1602,258.9790,0,U,54114,999,18163,-.38978945E-4,-.3E-7,0
ONEWEB-0495,2022-138C,2026-07-23T12:42:54.401184,13.19727011,.00024266,87.9184,297.7345,113.7842,246.3545,0,U,54115,999,18161,.10142333E-3,.54E-6,0
ONEWEB-0497,2022-138D,2026-07-23T13:01:06.104064,13.19724211,.00020913,87.9186,297.7261,102.4933,257.6434,0,U,54116,999,18160,.10471827E-4,.17E-6,0
ONEWEB-0499,2022-138E,2026-07-23T12:37:14.075904,13.19724776,.0002067,87.9186,297.7365,107.0622,253.0738,0,U,54117,999,18161,.73956837E-4,.43E-6,0
ONEWEB-0500,2022-138F,2026-07-23T12:40:38.669376,13.19726532,.00020781,87.9188,297.7322,97.7840,262.3528,0,U,54118,999,18162,.17289652E-3,.82E-6,0
ONEWEB-0501,2022-138G,2026-07-23T13:23:51.808128,13.19726855,.00022667,87.9192,297.7267,110.0663,250.0714,0,U,54119,999,18160,-.40711844E-4,-.3E-7,0
ONEWEB-0502,2022-138H,2026-07-23T05:46:40.038816,13.19724001,.00020091,87.9194,297.7790,107.4242,252.7110,0,U,54120,999,18158,.17575744E-4,.2E-6,0
ONEWEB-0503,2022-138J,2026-07-23T07:19:55.551648,13.19726584,.00017603,87.9191,297.7725,101.0568,259.0763,0,U,54121,999,18158,.77047597E-4,.44E-6,0
ONEWEB-0504,2022-138K,2026-07-23T12:29:15.500256,13.19726990,.00019967,87.9191,297.7340,107.3786,252.7565,0,U,54122,999,18162,.31613765E-3,.14E-5,0
ONEWEB-0505,2022-138L,2026-07-23T06:57:10.945728,13.19723624,.00021705,87.9188,297.7801,112.2989,247.8374,0,U,54123,999,18157,.99923064E-4,.53E-6,0
ONEWEB-0506,2022-138M,2026-07-23T06:20:48.933600,13.19726318,.00021774,87.9194,297.7836,108.6411,251.4958,0,U,54124,999,18156,.54652539E-4,.35E-6,0
ONEWEB-0507,2022-138N,2026-07-23T06:50:21.129792,13.19726339,.00021791,87.9183,297.7882,105.3550,254.7824,0,U,54125,999,18161,-.30585933E-3,-.109E-5,0
ONEWEB-0508,2022-138P,2026-07-23T12:13:20.731872,13.19726616,.00023801,87.9184,297.7429,107.6077,252.5316,0,U,54126,999,18162,.19564179E-3,.91E-6,0
ONEWEB-0509,2022-138Q,2026-07-23T06:09:25.571808,13.19725069,.00021015,87.9193,297.7865,104.4451,255.6915,0,U,54127,999,18156,.45803834E-4,.31E-6,0
ONEWEB-0510,2022-138R,2026-07-23T04:36:50.989248,13.20762896,.00018001,87.9176,267.2605,84.7883,275.3455,0,U,54128,999,18403,-.228368E-2,-.915E-5,0
ONEWEB-0511,2022-138S,2026-07-23T13:21:34.707744,13.19724225,.00018204,87.9188,297.7279,106.1908,253.9425,0,U,54129,999,18163,-.22094206E-3,-.76E-6,0
ONEWEB-0512,2022-138T,2026-07-23T13:10:11.835840,13.19724199,.00020484,87.9180,297.7320,110.3240,249.8113,0,U,54130,999,18160,.23326487E-4,.22E-6,0
ONEWEB-0513,2022-138U,2026-07-23T07:29:21.030144,13.20269906,.0001944,87.9189,297.7189,126.2385,233.8928,0,U,54131,999,18148,.18934607E-4,.21E-6,0
ONEWEB-0514,2022-138V,2026-07-23T11:43:46.473312,13.19724779,.00019358,87.9190,297.7409,96.8106,263.3247,0,U,54132,999,18161,-.47074798E-4,-.6E-7,0
ONEWEB-0515,2022-138W,2026-07-23T04:17:26.903040,13.20772853,.00025903,87.9180,267.2596,81.8331,278.3096,0,U,54133,999,18405,.97025927E-4,.52E-6,0
ONEWEB-0516,2022-138X,2026-07-23T12:56:33.621792,13.19724542,.00021957,87.9181,297.7341,100.8643,259.2737,0,U,54134,999,18162,.11471752E-3,.59E-6,0
ONEWEB-0517,2022-138Y,2026-07-23T12:26:59.136000,13.19727016,.00017493,87.9187,297.7331,101.8950,258.2379,0,U,54135,999,18162,.19303037E-3,.9E-6,0
ONEWEB-0518,2022-138Z,2026-07-23T07:26:45.847104,13.19724532,.00022377,87.9183,297.7819,98.7128,261.4258,0,U,54136,999,18159,.28447841E-4,.24E-6,0
ONEWEB-0519,2022-138AA,2026-07-23T13:30:40.392000,13.19724525,.00018239,87.9190,297.7256,100.0431,260.0907,0,U,54137,999,18163,.1545787E-4,.19E-6,0
ONEWEB-0520,2022-138AB,2026-07-23T12:31:32.663712,13.19725096,.00022003,87.9191,297.7341,106.3477,253.7897,0,U,54138,999,18161,.19953402E-3,.93E-6,0
ONEWEB-0521,2022-138AC,2026-07-23T06:02:34.982592,13.19724383,.00018045,87.9194,297.7771,98.7297,261.4040,0,U,54139,999,18152,.12196456E-3,.62E-6,0
